[
    {
        "name": "Daniel Kaleta",
        "street": "7236 W 62nd St",
        "city": "Summit Argo",
        "state": "Illinois",
        "country": "U.S.A.",
        "postal_code": "60501 -"
    },
    {
        "company": "Hillsboro Petroleum West, Inc.",
        "street": "19323 Skyridge Cir.",
        "city": "Boca Raton",
        "state": "FL",
        "postal_code": "33498 -"
    },
    {
        "name": "Brenda Vega Chavez",
        "street": "7000 Newberry Ct E",
        "city": "Fort Worth",
        "state": "TX",
        "postal_code": "76120 -"
    },
    {
        "name": "Milton W Gilchrist,Jr",
        "street": "4910 Paddock Club Court Apt A",
        "city": "Montgomery",
        "state": "AL",
        "postal_code": "36116 -"
    },
    {
        "name": "Dana Walker",
        "street": "105 Briggs Cove",
        "city": "Lamar",
        "state": "MS",
        "postal_code": "38642 - 8205"
    },
    {
        "name": "Daniel Gonzales Sr",
        "street": "335 Regency Circle #103",
        "city": "Salinas",
        "state": "CA",
        "postal_code": "93906 -"
    },
    {
        "name": "Julie Melendrez",
        "street": "721 Griswold Avenue",
        "city": "San Fernando",
        "state": "California",
        "country": "US",
        "postal_code": "91340 - 2104"
    },
    {
        "company": "Medi Caregivers LLC",
        "street": "1172 Old Salem Rd",
        "city": "Conyers",
        "state": "Georgia",
        "postal_code": "30094 -"
    },
    {
        "name": "Ted A Tetzlaff",
        "street": "1365 Hudson Way",
        "city": "Grand Island",
        "state": "FL",
        "postal_code": "32735 -"
    },
    {
        "name": "David Allen Topaum Jr.",
        "street": "6110 Northwest Cherry Avenue",
        "city": "Lawton",
        "state": "OK",
        "country": "USA",
        "postal_code": "73505 - 4427"
    },
    {
        "company": "Consortium B, Inc.",
        "street": "1075 Griffin Street West",
        "city": "Dallas",
        "state": "Texas",
        "postal_code": "75215 -"
    },
    {
        "name": "Eric Sherrod",
        "street": "1098 South Perkins Road",
        "city": "Columbus",
        "state": "Mississippi",
        "postal_code": "39705 -"
    },
    {
        "name": "Ratasha Martin",
        "street": "5106 Wexford Road",
        "city": "Lansing",
        "state": "Michigan",
        "country": "United States",
        "postal_code": "48911 -"
    },
    {
        "name": "Larry L. Haumschild ,Jr.",
        "street": "W7826 County Road V",
        "city": "Lake Mills",
        "state": "WI",
        "postal_code": "53551 -"
    },
    {
        "name": "Rayfield Lloyd ,Jr.",
        "street": "6810 CHARITY WAY",
        "city": "Leland",
        "state": "North Carolina",
        "country": "U.S.",
        "postal_code": "28451 - 4501"
    },
    {
        "name": "STEPHEN BRIAN ADAMS,JR.",
        "street": "3822 E. Edgerton Ave.",
        "city": "Cudahy",
        "state": "WI",
        "postal_code": "53110 - 1906"
    },
    {
        "company": "Professional Resources Management of Crenshaw, LLC",
        "street": "60 Commerce Street, Suite 700",
        "city": "Montgomery",
        "state": "Alabama",
        "postal_code": "36104 -"
    },
    {
        "company": "OneSource Service, Inc.",
        "street": "135 West 20th Street",
        "city": "New York",
        "state": "NY",
        "country": "U.S.",
        "postal_code": "10011 - 3648"
    },
    {
        "name": "Roseanne Botham",
        "street": "12429 Breezewood Dr., #D",
        "city": "Whittier",
        "state": "CA",
        "postal_code": "90604 -"
    },
    {
        "name": "Ronald Dana Robinson",
        "street": "4491 High Gate Drive, N.W.",
        "city": "Acworth",
        "state": "GA",
        "postal_code": "30101 -"
    },
    {
        "name": "CEDRIC WILKERSON",
        "street": "2103 Washington Overlook Drive",
        "city": "Fort Washington",
        "state": "Maryland",
        "postal_code": "20744 -"
    },
    {
        "name": "Isatou Davis",
        "street": "1070 SW 191 Lane",
        "city": "Pembroke Pines",
        "state": "FL",
        "postal_code": "33029 -"
    },
    {
        "name": "Fernanda Camacho",
        "street": "155 Joliet Way",
        "city": "Dalton",
        "state": "GA",
        "country": "United States",
        "postal_code": "30720 -"
    },
    {
        "name": "David E. Simpson Jr.",
        "street": "8176 Teachout Rd.",
        "city": "Otisville",
        "state": "MI",
        "postal_code": "48463 - 9418"
    },
    {
        "company": "CT TSA Sales, LLC",
        "street": "102 Wolcott Road, Ste C",
        "city": "Wolcott",
        "state": "CT",
        "postal_code": "06716 - 2671"
    },
    {
        "name": "Delveccio Antonio Zollar,Sr.",
        "street": "5223 Spruce Avenue",
        "city": "Kansas City",
        "state": "MO",
        "postal_code": "64130 -"
    },
    {
        "name": "Jay Damron",
        "street": "1040 NW 38th Street",
        "city": "Lawton",
        "state": "OK",
        "postal_code": "73505 -"
    },
    {
        "name": "Billy Gene Walls Jr",
        "street": "114 Mrs. Gower Rd.",
        "city": "Lawrenceburg",
        "state": "Tennessee",
        "postal_code": "38464 - 5940"
    },
    {
        "name": "Roger W. VanHoose,Jr.",
        "street": "190 Lakeshore Circle",
        "city": "Georgetown",
        "state": "KY",
        "postal_code": "40324 -"
    },
    {
        "company": "Hajjar Medical Office Building of Jersey City, LLC",
        "street": "631 Grand Street",
        "city": "Jersey City",
        "state": "New Jersey",
        "country": "United States",
        "postal_code": "07304 -"
    },
    {
        "name": "Darleen Harding Wheeler",
        "street": "803 Craig Street",
        "city": "Schenectady",
        "state": "NY",
        "country": "US",
        "postal_code": "12307 -"
    },
    {
        "company": "Pie Lady & Son Inc.",
        "street": "10 Rockland Place",
        "city": "Nyack",
        "state": "NY",
        "postal_code": "10960 -"
    },
    {
        "company": "Tres Mosqueteros Corp. d/b/a La Pulperia de Tito",
        "street": "371 West 46th Street",
        "city": "New York",
        "state": "NY",
        "country": "U.S.",
        "postal_code": "10036 -"
    },
    {
        "name": "Ronald L Smith, II",
        "street": "7182 Calusa Drive",
        "city": "Reynoldsburg",
        "state": "OH",
        "country": "USA",
        "postal_code": "43068 -"
    },
    {
        "name": "Vernon L McCalmant, III",
        "street": "2318 West 4475 South",
        "city": "Roy",
        "state": "UT",
        "country": "USA",
        "postal_code": "84067 - 1938"
    },
    {
        "name": "Erlinda Balguma",
        "street": "3123 West Howard Street",
        "city": "Chicago",
        "state": "Illinois",
        "postal_code": "60645 -"
    },
    {
        "name": "Miya Jayzette Williams",
        "street": "7201 Laurel Ridge",
        "city": "Greenwood",
        "state": "LA",
        "country": "United States",
        "postal_code": "71033 -"
    },
    {
        "name": "Andrew Reid Thayer",
        "street": "7680 Butler Court",
        "city": "Onsted",
        "state": "MI",
        "country": "U.S.",
        "postal_code": "49265 - 9433"
    },
    {
        "name": "Belton Jimmie Crooks Sr.",
        "street": "3658 Cloverdale Rd",
        "city": "Montgomery",
        "state": "AL",
        "country": "U.S.A.",
        "postal_code": "36111 -"
    },
    {
        "company": "Cervantes, Inc.",
        "street": "24 North Avenue East",
        "city": "Cranford",
        "state": "NJ",
        "country": "U.S.A.",
        "postal_code": "07016 -"
    }
]