[
  {
    "name": "  Maria J Mendoza",
    "street": "  26 Dewitt Ave.",
    "city": "Belleville",
    "state": "New Jersey ",
    "zip": "07109-"
  },
  {
    "name": "  Bob Ring",
    "street": "  161 Regis Drive",
    "city": "Staten Island",
    "state": "NY",
    "zip": "10314"
  },
  {
    "name": "  James Joseph Moley,Jr.",
    "street": "  136 Third Street",
    "city": "Saint James",
    "state": "NY",
    "zip": "11780"
  },
  {
    "name": "  David Allen Weidenhammer,Jr.",
    "street": "  237 Chestnut Street",
    "city": "West Reading",
    "state": "PA",
    "zip": "19611"
  },
  {
    "name": "  JOSEPH CANN ,SR",
    "street": "  477 Toftrees Drive",
    "city": "Middletown",
    "state": "DE",
    "zip": "19709"
  },
  {
    "name": "  Wanda Kay Hood",
    "street": "  583 Cayce Olin Dr",
    "county": "  YORK COUNTY",
    "city": "Rock Hill",
    "state": "SC",
    "zip": "29730"
  },
  {
    "name": "  Charity Lynn Patterson",
    "street": "  182 Dallas Rd.",
    "city": "Dallas",
    "state": "GA",
    "zip": "30157"
  },
  {
    "name": "  Quinton Roy McDaniel ,Sr",
    "street": "  6156 Christopher Terrace",
    "county": "  CLAYTON COUNTY",
    "city": "Rex",
    "state": "Georgia ",
    "zip": "30273"
  },
  {
    "name": "  Charles Henry Ray ,Jr.",
    "street": "  2308 Dorminey Street",
    "county": "  TIFT COUNTY",
    "city": "Tifton",
    "state": "GA",
    "zip": "31794"
  },
  {
    "name": "  Lamar Thomas Fletcher",
    "street": "  2448 Olson Lane",
    "city": "Jacksonville",
    "state": "FL",
    "zip": "32210"
  },
  {
    "name": "David Scherrep",
    "street": "  12014 Cobblewood Lane North",
    "county": "  DUVAL COUNTY",
    "city": "Jacksonville",
    "state": "Florida ",
    "zip": "32225"
  },
  {
    "name": "  Rocky Dean Haynes Jr.",
    "street": "  10216 Douglas Oaks Circle Apt. 301",
    "city": "Tampa",
    "state": "FL",
    "zip": "33610"
  },
  {
    "name": "  Robert John Blase",
    "street": "  8396 Jesolo Lane",
    "city": "Sarasota",
    "state": "Florida ",
    "zip": "34238-4738"
  },
  {
    "name": "  Angela Rynette Thomas",
    "street": "  7925 Berryhill Court, Apt. B",
    "city": "Montgomery",
    "state": "Alabama ",
    "zip": "36117-7729"
  },
  {
    "name": "  Charles Lee ,Jr.",
    "street": "  127 Askew Ln",
    "county": "  ESCAMBIA COUNTY",
    "city": "Atmore",
    "state": "AL",
    "zip": "36502"
  },
  {
    "name": "  Charles P Mercer",
    "street": "  P.O. Box 763",
    "city": "London",
    "state": "OH",
    "zip": "43140"
  },
  {
    "name": "  Stephen L. Green Jr.",
    "street": "  4201 Neuman Road",
    "city": "Saint Clair",
    "state": "MI",
    "zip": "48079"
  },
  {
    "name": "  Daren McClelland, II",
    "street": "  51074 Mott Apt #61",
    "county": "  WAYNE COUNTY",
    "city": "Canton",
    "state": "MI",
    "zip": "48188"
  },
  {
    "name": "  Annette Wilson",
    "street": "  16683 Robson St.",
    "city": "Detroit",
    "state": "MI",
    "zip": "48235"
  },
  {
    "name": "  Patrick Allen McClure",
    "street": "  8661 E Butterfly Ln",
    "city": "White Cloud",
    "state": "MI",
    "zip": "49349"
  },
  {
    "name": "  Orlando Hernandez, Sr.",
    "street": "  7619 W Glenbrook Rd",
    "city": "Milwaukee",
    "state": "WI",
    "zip": "53223"
  },
  {
    "name": "  Cinthia Ivana Fonseca",
    "street": "  1684 Wicke Ave",
    "city": "Des Plaines",
    "state": "IL",
    "zip": "60018"
  },
  {
    "name": "  Sonji S Dixon-McCoy",
    "street": "  1222 East 146th Street",
    "city": "Dolton",
    "state": "Illinois ",
    "zip": "60419-"
  },
  {
    "name": "  Everardo Rubio Jr.",
    "street": "  4520 Joliet Ave",
    "city": "Lyons",
    "state": "IL",
    "zip": "60534"
  },
  {
    "name": "  Hilda Flores",
    "street": "  1509 Alberbrook Pl",
    "county": "  DALLAS COUNTY",
    "city": "Garland",
    "state": "TX",
    "zip": "75040"
  },
  {
    "name": "  Stephen Guynes",
    "street": "  2507 Dry Wind Court",
    "city": "Humble",
    "state": "TX",
    "zip": "77396"
  },
  {
    "name": "  MANUEL VICTOR SOLIZ ,III",
    "street": "  10525 W. MONTEROSA ST #5",
    "county": "  MARICOPA COUNTY",
    "city": "PHOENIX",
    "state": "PH",
    "zip": "85037"
  },
  {
    "name": "  SHERLYTAKYREE HICKSON",
    "street": "  2706 S 257TH AVE",
    "city": "BUCKEYE",
    "state": "BU",
    "zip": "85326"
  },
  {
    "name": "  Lourdes Veronica Castillo",
    "street": "  63 S Garcia",
    "city": "Mendota",
    "state": "CA",
    "zip": "93640"
  },
  {
    "name": "  Gary Ge",
    "street": "  1992 Bowers Avenue",
    "city": "Santa Clara",
    "state": "CA",
    "zip": "95051"
  },
  {
    "name": "  Juan Carlos Ortiz",
    "street": "  32 Kingfisher Drive",
    "city": "Watsonville",
    "state": "California ",
    "zip": "95076-"
  }
]